PROBA-1                 
1 26958U 01049B   22300.48490832  .00001419  00000+0  12365-3 0  9993
2 26958  97.8394 260.4673 0069621 263.6400  95.6889 14.96777240144219
BIRD 2                  
1 26959U 01049C   22300.04129130  .00016199  00000+0  31056-3 0  9995
2 26959  97.7639  41.0295 0005278 255.2629 104.8035 15.48089404167275
CUTE-1 (CO-55)          
1 27844U 03031E   22299.82035797  .00000245  00000+0  12920-3 0  9994
2 27844  98.6809 305.5410 0010958  82.6446 277.5976 14.22522985  2553
CUBESAT XI-IV (CO-57)   
1 27848U 03031J   22300.45785205  .00000205  00000+0  11244-3 0  9990
2 27848  98.6851 306.6589 0010864  94.0939 266.1481 14.22070521  2473
GENESIS 1               
1 29252U 06029A   22300.34226399  .00005241  00000+0  22998-3 0  9996
2 29252  64.5228 357.6651 0052610 242.8104 116.7654 15.21886699899109
FALCONSAT-3             
1 30776U 07006E   22299.83267392  .00085993  00000+0  77341-3 0  9998
2 30776  35.4263 112.9790 0004308 343.2908  16.7686 15.66978748870090
GENESIS 2               
1 31789U 07028A   22300.57730045  .00005195  00000+0  23432-3 0  9999
2 31789  64.4976  40.4083 0058102 294.5574  64.9501 15.20695462846044
APRIZESAT 4             
1 35684U 09041D   22300.02902274  .00000500  00000+0  73151-4 0  9998
2 35684  98.3071 318.1719 0045433 290.2389  69.3940 14.79797560714578
APRIZESAT 3             
1 35686U 09041F   22300.50022608  .00001130  00000+0  12315-3 0  9991
2 35686  98.1038  30.0955 0072948 114.4317 246.4532 14.88182001718298
PROBA-2                 
1 36037U 09059B   22300.48453899  .00000168  00000+0  51082-4 0  9993
2 36037  98.2235 124.6146 0014531  64.1862 296.0831 14.53315557688522
APRIZESAT 5             
1 37792U 11044E   22300.23766298  .00000665  00000+0  10268-3 0  9994
2 37792  98.3031 179.4074 0056560 305.0638  54.5272 14.75913367602574
APRIZESAT 6             
1 37793U 11044F   22299.56503385  .00000431  00000+0  74778-4 0  9992
2 37793  98.3831 155.9876 0046630   1.6416  57.1079 14.72908649601164
TET-1                   
1 38710U 12039D   22300.51626757  .00250307  27053-4  58800-3 0  9992
2 38710  97.4974  32.7222 0003460 257.0394 103.0496 15.96900008578250
PROBA-V                 
1 39159U 13021A   22300.06001950  .00000032  00000+0  32342-4 0  9994
2 39159  98.3451 329.2468 0005301  72.0484 288.1273 14.23055523492047
STPSAT-3                
1 39380U 13064A   22300.43196215  .00046943  00000+0  72830-3 0  9993
2 39380  40.4993 319.3803 0009209 183.5610 176.5180 15.53095424501412
APRIZESAT 7             
1 39416U 13066A   22300.18991179  .00000999  00000+0  12265-3 0  9996
2 39416  97.5888 273.8492 0039017 284.7143  74.9750 14.84688869483610
APRIZESAT 8             
1 39425U 13066K   22299.86814949  .00000887  00000+0  11639-3 0  9997
2 39425  97.6447 265.2077 0050579 331.8441  28.0039 14.81813156482690
BUGSAT-1 (TITA)         
1 40014U 14033E   22300.55297221  .00002566  00000+0  22525-3 0  9997
2 40014  98.1460 304.4278 0029589 322.1961  37.7180 14.97264077455900
SAUDISAT 4              
1 40016U 14033G   22300.25809434  .00000409  00000+0  65653-4 0  9995
2 40016  97.6375 127.8581 0049415  74.2486 286.4167 14.75678470449859
APRIZESAT 9             
1 40018U 14033J   22300.42797934  .00000600  00000+0  10310-3 0  9999
2 40018  97.7280 104.0370 0071620 148.8902 211.6576 14.70395021448175
APRIZESAT 10            
1 40019U 14033K   22300.37552193  .00000617  00000+0  11192-3 0  9997
2 40019  97.7855  93.9313 0083434 194.5359 165.3447 14.67421589447320
TDS 1                   
1 40076U 14037H   22300.49898390  .00002298  00000+0  26853-3 0  9996
2 40076  98.3690 180.3859 0007277  15.3967 344.7467 14.86186597449391
TIANTUO 2               
1 40144U 14053B   22300.33490933  .00007021  00000+0  18098-3 0  9995
2 40144  97.1852  17.7030 0012073  84.5188 340.6294 15.39426865455373
TECHNOSAT               
1 42829U 17042E   22300.40419546  .00001498  00000+0  15195-3 0  9994
2 42829  97.4049 146.7691 0012467 288.5156  71.4709 14.92197193287763
FLYING LAPTOP           
1 42831U 17042G   22300.52459699  .00001038  00000+0  10733-3 0  9996
2 42831  97.4058 147.2205 0012273 287.8758  72.1132 14.92044003287789
HAWK-A                  
1 43765U 18099H   22300.46546064  .00002550  00000+0  22308-3 0  9993
2 43765  97.6053   5.0705 0014629 181.3282 178.7904 14.97524574212897
HAWK-B                  
1 43794U 18099AN  22299.73083337  .00002301  00000+0  20186-3 0  9997
2 43794  97.6052   4.3555 0014666 183.7183 176.3933 14.97520393212778
HAWK-C                  
1 43799U 18099AT  22300.13153827  .00002526  00000+0  22107-3 0  9995
2 43799  97.6048   4.6520 0014599 182.0151 178.1015 14.97520385212834
SALSAT                  
1 46495U 20068K   22299.89380186  .00001917  00000+0  13873-3 0  9993
2 46495  97.7418 241.3465 0015916 184.8059 175.3017 15.05142906113954
